[{"OBJECT_NAME":"STARLINK-30352","OBJECT_ID":"2023-131E","EPOCH":"2026-03-09T07:50:02.268960","MEAN_MOTION":15.02534219,"ECCENTRICITY":0.00014572,"INCLINATION":43.0043,"RA_OF_ASC_NODE":173.4098,"ARG_OF_PERICENTER":271.2649,"MEAN_ANOMALY":88.8026,"EPHEMERIS_TYPE":0,"CLASSIFICATION_TYPE":"U","NORAD_CAT_ID":57736,"ELEMENT_SET_NO":999,"REV_AT_EPOCH":13987,"BSTAR":4.0658673e-5,"MEAN_MOTION_DOT":3.46e-6,"MEAN_MOTION_DDOT":0},{"OBJECT_NAME":"FENGYUN 1C DEB","OBJECT_ID":"1999-025ATE","EPOCH":"2026-03-09T09:33:08.339616","MEAN_MOTION":15.01474525,"ECCENTRICITY":0.00075584,"INCLINATION":98.7312,"RA_OF_ASC_NODE":229.2263,"ARG_OF_PERICENTER":329.2571,"MEAN_ANOMALY":91.5818,"EPHEMERIS_TYPE":0,"CLASSIFICATION_TYPE":"U","NORAD_CAT_ID":30744,"ELEMENT_SET_NO":999,"REV_AT_EPOCH":99383,"BSTAR":0.0056947952,"MEAN_MOTION_DOT":0.0007432,"MEAN_MOTION_DDOT":0}]
